{
  "version": 1,
  "fetchedAt": "2026-06-20T14:26:57.371Z",
  "source": "celestrak-gp",
  "counts": {
    "station": 24,
    "satellite": 520,
    "debris": 250
  },
  "objects": [
    {
      "id": "694",
      "name": "ATLAS CENTAUR 2",
      "noradId": 694,
      "line1": "1 00694U 63047A   26171.17719435  .00000858  00000+0  89358-4 0  9990",
      "line2": "2 00694  30.3587 342.6738 0546006 263.8765  89.9388 14.12524464146120",
      "category": "satellite"
    },
    {
      "id": "733",
      "name": "THOR AGENA D R/B",
      "noradId": 733,
      "line1": "1 00733U 64002A   26171.08730830  .00000092  00000+0  50193-4 0  9993",
      "line2": "2 00733  99.1153 189.9758 0032186 321.9802  37.9109 14.34066354252975",
      "category": "satellite"
    },
    {
      "id": "877",
      "name": "SL-3 R/B",
      "noradId": 877,
      "line1": "1 00877U 64053B   26170.99872124  .00000040  00000+0  32161-4 0  9998",
      "line2": "2 00877  65.0776  31.2691 0080961 260.2283  98.9667 14.61427675281744",
      "category": "satellite"
    },
    {
      "id": "2802",
      "name": "SL-8 R/B",
      "noradId": 2802,
      "line1": "1 02802U 67045B   26171.26904924  .00000169  00000+0  54240-4 0  9991",
      "line2": "2 02802  74.0095 156.5025 0063331 140.0785 220.5057 14.45683321103848",
      "category": "satellite"
    },
    {
      "id": "3230",
      "name": "SL-8 R/B",
      "noradId": 3230,
      "line1": "1 03230U 68040B   26171.24313571  .00002035  00000+0  15004-3 0  9991",
      "line2": "2 03230  74.0309 104.0412 0025970 256.6997 103.1296 15.03830553105429",
      "category": "satellite"
    },
    {
      "id": "3597",
      "name": "OAO 2",
      "noradId": 3597,
      "line1": "1 03597U 68110A   26171.08988645  .00000151  00000+0  45879-4 0  9998",
      "line2": "2 03597  34.9945  53.4708 0006150 294.6821  65.3229 14.47353036 33943",
      "category": "satellite"
    },
    {
      "id": "3669",
      "name": "ISIS 1",
      "noradId": 3669,
      "line1": "1 03669U 69009A   26171.20081055  .00000044  00000+0  31475-4 0  9997",
      "line2": "2 03669  88.4428 144.0685 1706315 242.1334  99.6774 11.30434060360115",
      "category": "satellite"
    },
    {
      "id": "4327",
      "name": "SERT 2",
      "noradId": 4327,
      "line1": "1 04327U 70009A   26171.29290248  .00000006  00000+0  65339-4 0  9990",
      "line2": "2 04327  99.2841 108.8394 0003929 263.5469 250.5870 13.58739461793825",
      "category": "satellite"
    },
    {
      "id": "5118",
      "name": "SL-3 R/B",
      "noradId": 5118,
      "line1": "1 05118U 71028B   26171.30609894  .00045187  00000+0  37278-3 0  9993",
      "line2": "2 05118  81.2330 284.4390 0014073 268.7096  91.2550 15.70006202  4736",
      "category": "satellite"
    },
    {
      "id": "5560",
      "name": "ASTEX 1",
      "noradId": 5560,
      "line1": "1 05560U 71089A   26171.31387144  .00000257  00000+0  65356-4 0  9991",
      "line2": "2 05560  92.6996 184.8628 0017984  97.0230 263.3022 14.50853515877182",
      "category": "satellite"
    },
    {
      "id": "5730",
      "name": "SL-8 R/B",
      "noradId": 5730,
      "line1": "1 05730U 71119B   26171.07520018  .00002617  00000+0  13624-3 0  9998",
      "line2": "2 05730  73.8878 344.0478 0543726 289.4327  64.8851 14.39521149670217",
      "category": "satellite"
    },
    {
      "id": "6153",
      "name": "OAO 3 (COPERNICUS)",
      "noradId": 6153,
      "line1": "1 06153U 72065A   26171.12428228  .00000205  00000+0  46389-4 0  9991",
      "line2": "2 06153  35.0062  73.6684 0007326 277.2080 226.6248 14.60061533861173",
      "category": "satellite"
    },
    {
      "id": "6155",
      "name": "ATLAS CENTAUR R/B",
      "noradId": 6155,
      "line1": "1 06155U 72065B   26171.11516236  .00000769  00000+0  10739-3 0  9993",
      "line2": "2 06155  35.0019  65.3761 0033201 153.8704 206.3679 14.77925695856425",
      "category": "satellite"
    },
    {
      "id": "8459",
      "name": "SL-8 R/B",
      "noradId": 8459,
      "line1": "1 08459U 75112B   26171.24038824  .00000189  00000+0  70850-4 0  9991",
      "line2": "2 08459  74.0590 190.2570 0016842 256.8544 103.0731 14.38247842646613",
      "category": "satellite"
    },
    {
      "id": "10114",
      "name": "SL-3 R/B",
      "noradId": 10114,
      "line1": "1 10114U 77057B   26171.25538813  .00009757  00000+0  18888-3 0  9998",
      "line2": "2 10114  97.5846 347.9444 0005477 271.2610  88.8012 15.47938584684183",
      "category": "satellite"
    },
    {
      "id": "10967",
      "name": "SEASAT 1",
      "noradId": 10967,
      "line1": "1 10967U 78064A   26171.28297339  .00000157  00000+0  82118-4 0  9994",
      "line2": "2 10967 108.0177 340.7874 0001748 240.4098 119.6874 14.46245177521341",
      "category": "satellite"
    },
    {
      "id": "11267",
      "name": "SL-14 R/B",
      "noradId": 11267,
      "line1": "1 11267U 79011B   26170.99228781  .00000382  00000+0  35046-4 0  9991",
      "line2": "2 11267  82.5237 359.4916 0017501  77.0548 283.2625 14.92016398544035",
      "category": "satellite"
    },
    {
      "id": "11574",
      "name": "SL-8 R/B",
      "noradId": 11574,
      "line1": "1 11574U 79089B   26171.25666320  .00000155  00000+0  54886-4 0  9993",
      "line2": "2 11574  74.0692 261.1753 0015061  43.7599 316.4748 14.42405195450897",
      "category": "satellite"
    },
    {
      "id": "11672",
      "name": "SL-14 R/B",
      "noradId": 11672,
      "line1": "1 11672U 80005B   26171.07268606  .00000330  00000+0  30691-4 0  9990",
      "line2": "2 11672  82.5137 210.1032 0015764 176.2237 183.9104 14.91030703491744",
      "category": "satellite"
    },
    {
      "id": "12139",
      "name": "SL-8 R/B",
      "noradId": 12139,
      "line1": "1 12139U 81003B   26171.32422450  .00015379  00000+0  37423-3 0  9993",
      "line2": "2 12139  82.9369 194.8563 0250699 180.2463 179.8693 15.14312178330198",
      "category": "satellite"
    },
    {
      "id": "12465",
      "name": "SL-3 R/B",
      "noradId": 12465,
      "line1": "1 12465U 81046B   26171.23489975  .00009799  00000+0  21121-3 0  9994",
      "line2": "2 12465  81.2299 166.3974 0018227  27.6807 332.5403 15.44252164454240",
      "category": "satellite"
    },
    {
      "id": "12904",
      "name": "SL-3 R/B",
      "noradId": 12904,
      "line1": "1 12904U 81103B   26171.27478660  .00003793  00000+0  16334-3 0  9997",
      "line2": "2 12904  81.1583  93.0060 0011600 304.7906  55.2234 15.22305905988838",
      "category": "satellite"
    },
    {
      "id": "13068",
      "name": "SL-3 R/B",
      "noradId": 13068,
      "line1": "1 13068U 82013B   26171.24535413  .00002988  00000+0  12592-3 0  9994",
      "line2": "2 13068  81.1737  40.4681 0021600 190.4175 169.6613 15.22802900419955",
      "category": "satellite"
    },
    {
      "id": "13154",
      "name": "SL-3 R/B",
      "noradId": 13154,
      "line1": "1 13154U 82039B   26171.28067821  .00002886  00000+0  17196-3 0  9997",
      "line2": "2 13154  81.1452  97.5116 0028436 345.8333  14.2092 15.10555806397124",
      "category": "satellite"
    },
    {
      "id": "13403",
      "name": "SL-3 R/B",
      "noradId": 13403,
      "line1": "1 13403U 82079B   26171.26409843  .00003729  00000+0  14369-3 0  9996",
      "line2": "2 13403  81.1459  71.8480 0023941 175.0709 185.0766 15.25809723393333",
      "category": "satellite"
    },
    {
      "id": "13553",
      "name": "SL-14 R/B",
      "noradId": 13553,
      "line1": "1 13553U 82092B   26171.09774483  .00000288  00000+0  29533-4 0  9990",
      "line2": "2 13553  82.5679  45.5799 0019403 325.2327 186.5773 14.86749487344147",
      "category": "satellite"
    },
    {
      "id": "13819",
      "name": "SL-3 R/B",
      "noradId": 13819,
      "line1": "1 13819U 83010B   26171.22386466  .00011434  00000+0  20746-3 0  9992",
      "line2": "2 13819  81.1007 236.2255 0015293  52.2916 307.9714 15.49310432373805",
      "category": "satellite"
    },
    {
      "id": "14208",
      "name": "SL-3 R/B",
      "noradId": 14208,
      "line1": "1 14208U 83075B   26171.25182278  .00007831  00000+0  19381-3 0  9993",
      "line2": "2 14208  97.6106 179.8813 0019602 217.3294 142.6591 15.40538169345933",
      "category": "satellite"
    },
    {
      "id": "14699",
      "name": "COSMOS 1536",
      "noradId": 14699,
      "line1": "1 14699U 84013A   26171.04934553  .00004515  00000+0  17893-3 0  9990",
      "line2": "2 14699  82.5443   5.9936 0012583 284.0426  75.9412 15.25076395288216",
      "category": "satellite"
    },
    {
      "id": "14820",
      "name": "SL-14 R/B",
      "noradId": 14820,
      "line1": "1 14820U 84027B   26171.17762737  .00000333  00000+0  35238-4 0  9996",
      "line2": "2 14820  82.5412 148.9127 0017868 359.4628   0.6566 14.86061559262859",
      "category": "satellite"
    }
  ]
}