OBJECT_NAME,OBJECT_ID,EPOCH,MEAN_MOTION,ECCENTRICITY,INCLINATION,RA_OF_ASC_NODE,ARG_OF_PERICENTER,MEAN_ANOMALY,EPHEMERIS_TYPE,CLASSIFICATION_TYPE,NORAD_CAT_ID,ELEMENT_SET_NO,REV_AT_EPOCH,BSTAR,MEAN_MOTION_DOT,MEAN_MOTION_DDOT
ATLAS CENTAUR 2,1963-047A,2026-06-20T04:15:09.591840,14.12524464,.05460061,30.3587,342.6738,263.8765,89.9388,0,U,694,999,14612,.89358048E-4,.858E-5,0
THOR AGENA D R/B,1964-002A,2026-06-20T02:05:43.437120,14.34066354,.00321869,99.1153,189.9758,321.9802,37.9109,0,U,733,999,25297,.50192916E-4,.92E-6,0
SL-3 R/B,1964-053B,2026-06-19T23:58:09.515136,14.61427675,.00809619,65.0776,31.2691,260.2283,98.9667,0,U,877,999,28174,.321607E-4,.4E-6,0
SL-8 R/B,1967-045B,2026-06-20T06:27:25.854336,14.45683321,.00633316,74.0095,156.5025,140.0785,220.5057,0,U,2802,999,10384,.54240005E-4,.169E-5,0
SL-8 R/B,1968-040B,2026-06-20T05:50:06.925344,15.03830553,.00259707,74.0309,104.0412,256.6997,103.1296,0,U,3230,999,10542,.15004178E-3,.2035E-4,0
OAO 2,1968-110A,2026-06-20T02:09:26.189280,14.47353036,.00061506,34.9945,53.4708,294.6821,65.3229,0,U,3597,999,3394,.4587883E-4,.151E-5,0
ISIS 1,1969-009A,2026-06-20T04:49:10.031520,11.30434060,.17063151,88.4428,144.0685,242.1334,99.6774,0,U,3669,999,36011,.31475061E-4,.44E-6,0
SERT 2,1970-009A,2026-06-20T07:01:46.774272,13.58739461,.00039296,99.2841,108.8394,263.5469,250.5870,0,U,4327,999,79382,.65338771E-4,.6E-7,0
SL-3 R/B,1971-028B,2026-06-20T07:20:46.948416,15.70006202,.00140739,81.2330,284.4390,268.7096,91.2550,0,U,5118,999,473,.37277984E-3,.45187E-3,0
ASTEX 1,1971-089A,2026-06-20T07:31:58.492416,14.50853515,.00179844,92.6996,184.8628,97.0230,263.3022,0,U,5560,999,87718,.6535555E-4,.257E-5,0
SL-8 R/B,1971-119B,2026-06-20T01:48:17.295552,14.39521149,.0543726,73.8878,344.0478,289.4327,64.8851,0,U,5730,999,67021,.1362375E-3,.2617E-4,0
OAO 3 (COPERNICUS),1972-065A,2026-06-20T02:58:57.988992,14.60061533,.00073269,35.0062,73.6684,277.2080,226.6248,0,U,6153,999,86117,.46388501E-4,.205E-5,0
ATLAS CENTAUR R/B,1972-065B,2026-06-20T02:45:50.027904,14.77925695,.00332016,35.0019,65.3761,153.8704,206.3679,0,U,6155,999,85642,.10739144E-3,.769E-5,0
SL-8 R/B,1975-112B,2026-06-20T05:46:09.543936,14.38247842,.00168426,74.0590,190.2570,256.8544,103.0731,0,U,8459,999,64661,.70850015E-4,.189E-5,0
SL-3 R/B,1977-057B,2026-06-20T06:07:45.534432,15.47938584,.00054773,97.5846,347.9444,271.2610,88.8012,0,U,10114,999,68418,.18888375E-3,.9757E-4,0
SEASAT 1,1978-064A,2026-06-20T06:47:28.900896,14.46245177,.00017483,108.0177,340.7874,240.4098,119.6874,0,U,10967,999,52134,.82118148E-4,.157E-5,0
SL-14 R/B,1979-011B,2026-06-19T23:48:53.666784,14.92016398,.0017501,82.5237,359.4916,77.0548,283.2625,0,U,11267,999,54403,.35045721E-4,.382E-5,0
SL-8 R/B,1979-089B,2026-06-20T06:09:35.700480,14.42405195,.00150616,74.0692,261.1753,43.7599,316.4748,0,U,11574,999,45089,.54886442E-4,.155E-5,0
SL-14 R/B,1980-005B,2026-06-20T01:44:40.075584,14.91030703,.00157648,82.5137,210.1032,176.2237,183.9104,0,U,11672,999,49174,.30691344E-4,.33E-5,0
SL-8 R/B,1981-003B,2026-06-20T07:46:52.996800,15.14312178,.02506991,82.9369,194.8563,180.2463,179.8693,0,U,12139,999,33019,.3742338E-3,.15379E-3,0
SL-3 R/B,1981-046B,2026-06-20T05:38:15.338400,15.44252164,.00182271,81.2299,166.3974,27.6807,332.5403,0,U,12465,999,45424,.2112141E-3,.9799E-4,0
SL-3 R/B,1981-103B,2026-06-20T06:35:41.562240,15.22305905,.00116009,81.1583,93.0060,304.7906,55.2234,0,U,12904,999,98883,.1633444E-3,.3793E-4,0
SL-3 R/B,1982-013B,2026-06-20T05:53:18.596832,15.22802900,.00216004,81.1737,40.4681,190.4175,169.6613,0,U,13068,999,41995,.12592456E-3,.2988E-4,0
SL-3 R/B,1982-039B,2026-06-20T06:44:10.597344,15.10555806,.00284366,81.1452,97.5116,345.8333,14.2092,0,U,13154,999,39712,.17195595E-3,.2886E-4,0
SL-3 R/B,1982-079B,2026-06-20T06:20:18.104352,15.25809723,.00239412,81.1459,71.8480,175.0709,185.0766,0,U,13403,999,39333,.14369474E-3,.3729E-4,0
SL-14 R/B,1982-092B,2026-06-20T02:20:45.153312,14.86749487,.00194032,82.5679,45.5799,325.2327,186.5773,0,U,13553,999,34414,.2953301E-4,.288E-5,0
SL-3 R/B,1983-010B,2026-06-20T05:22:21.906624,15.49310432,.00152936,81.1007,236.2255,52.2916,307.9714,0,U,13819,999,37380,.2074608E-3,.11434E-3,0
SL-3 R/B,1983-075B,2026-06-20T06:02:37.488192,15.40538169,.0019602,97.6106,179.8813,217.3294,142.6591,0,U,14208,999,34593,.1938147E-3,.7831E-4,0
COSMOS 1536,1984-013A,2026-06-20T01:11:03.453792,15.25076395,.0012583,82.5443,5.9936,284.0426,75.9412,0,U,14699,999,28821,.17893073E-3,.4515E-4,0
SL-14 R/B,1984-027B,2026-06-20T04:15:47.004768,14.86061559,.00178684,82.5412,148.9127,359.4628,0.6566,0,U,14820,999,26285,.35238337E-4,.333E-5,0
